STARLINK-30875          
1 58224U 23170U   26068.37231528  .00000142  00000+0  14947-4 0  9992
2 58224  42.9974 195.7665 0000354 217.8694 142.2133 15.26737349130250
MESON-1                 
1 59131U 24043AK  26068.90019075  .00008544  00000+0  29748-3 0  9998
2 59131  97.5469 205.2839 0009545 227.1432 132.9007 15.29893494111890
